STARLINK-33772          
1 63656C 25083Y   25280.82479167 -.00022740  00000+0 -82373-3 0  2800
2 63656  42.9994 148.4749 0001849 271.6097 262.8605 15.27597026    10
STARLINK-33789          
1 63657C 25083Z   25280.82826389 -.00031950  00000+0 -11574-2 0  2800
2 63657  42.9995 148.3517 0001454 272.8612 323.1580 15.27604864    14
STARLINK-33822          
1 63658C 25083AA  25280.82618056 -.00023801  00000+0 -86208-3 0  2804
2 63658  43.0019 148.6548 0001454 270.3510 193.9202 15.27601094    17
STARLINK-33771          
1 63659C 25083AB  25280.82826389  .00082153  00000+0  29759-2 0  2805
2 63659  43.0009 151.8861 0001071 276.5230 322.0356 15.27493699    18
STARLINK-33810          
1 63660C 25083AC  25280.82270833 -.00038622  00000+0 -13990-2 0  2808
2 63660  43.0002 148.2648 0001768 262.1369 352.8359 15.27614195    13
STARLINK-33823          
1 63661C 25083AD  25280.82687500 -.00029413  00000+0 -10654-2 0  2804
2 63661  43.0012 148.6051 0001511 261.9963 227.3440 15.27603876    11
STARLINK-11651 [DTC]    
1 63664C 25085A   25280.79979167  .00002327  00000+0  18090-4 0  2805
2 63664  43.0000 119.6406 0001874 259.7021 334.1297 15.70815461    15
STARLINK-11672 [DTC]    
1 63665C 25085B   25280.79979167 -.00016671  00000+0 -12960-3 0  2804
2 63665  42.9999 119.5654 0001844 263.7803   0.1056 15.70832658    15
STARLINK-11664 [DTC]    
1 63666C 25085C   25280.79909722 -.00017181  00000+0 -13358-3 0  2804
2 63666  43.0000 120.4043 0001757 265.8652  18.2681 15.70831406    16
STARLINK-11666 [DTC]    
1 63667C 25085D   25280.79979167 -.00008434  00000+0 -65570-4 0  2800
2 63667  43.0000 120.3868 0001800 268.4838  24.7414 15.70823815    16
STARLINK-11663 [DTC]    
1 63668C 25085E   25280.79701389 -.00007528  00000+0 -58523-4 0  2803
2 63668  42.9999 120.3284 0001842 264.2512  43.3097 15.70822194    16
STARLINK-11595 [DTC]    
1 63669C 25085F   25280.78104167  .00085477  00000+0  66607-3 0  2802
2 63669  43.0000 120.3492 0001654 274.4304 332.8915 15.70676229    17
STARLINK-11599 [DTC]    
1 63670C 25085G   25280.78104167 -.00016402  00000+0 -12751-3 0  2809
2 63670  42.9999 120.2745 0001866 266.7340  10.5068 15.70833201    17
STARLINK-11603 [DTC]    
1 63671C 25085H   25280.77687500 -.00002282  00000+0 -17741-4 0  2802
2 63671  42.9999 120.2243 0001862 264.8491  18.8664 15.70818985    18
STARLINK-11644 [DTC]    
1 63672C 25085J   25280.79770833 -.00001796  00000+0 -13959-4 0  2803
2 63672  43.0000 120.0235 0001935 259.3033 172.4311 15.70819104    15
STARLINK-11634 [DTC]    
1 63673C 25085K   25280.79770833 -.00007005  00000+0 -54460-4 0  2805
2 63673  43.0000 119.9482 0001792 264.3961 197.3979 15.70823136    10
STARLINK-11656 [DTC]    
1 63674C 25085L   25280.79770833 -.00004185  00000+0 -32530-4 0  2806
2 63674  43.0000 119.8732 0001826 262.7692 229.0850 15.70821330    14
STARLINK-11655 [DTC]    
1 63675C 25085M   25280.79284722 -.00007743  00000+0 -60196-4 0  2806
2 63675  43.0001 119.8275 0001760 265.5000 228.8933 15.70823582    19
STARLINK-11661 [DTC]    
1 63676C 25085N   25280.79631944 -.00007608  00000+0 -59148-4 0  2804
2 63676  43.0001 119.7312 0001718 269.9863 274.1313 15.70822435    11
STARLINK-33816          
1 63677C 25085P   25280.82687500 -.00062835  00000+0 -22762-2 0  2801
2 63677  42.9999 174.3504 0001728 277.2929 306.8779 15.27634948    13
STARLINK-33861          
1 63678C 25085Q   25280.83243056 -.00030325  00000+0 -10980-2 0  2805
2 63678  42.9995 174.3858 0001462 270.2414 316.1013 15.27620212    13
STARLINK-33850          
1 63679C 25085R   25280.82756944 -.00070183  00000+0 -25422-2 0  2803
2 63679  43.0019 174.1648 0001460 263.7242  42.1094 15.27645409    12
STARLINK-33887          
1 63680C 25085S   25280.82756944 -.00067295  00000+0 -24375-2 0  2801
2 63680  43.0011 173.7519 0001451 272.8591 202.7556 15.27644044    17
STARLINK-33886          
1 63681C 25085T   25280.82618056 -.00064458  00000+0 -23348-2 0  2800
2 63681  43.0005 173.7071 0001547 276.5911 212.5975 15.27640394    15
STARLINK-33840          
1 63682C 25085U   25280.82340278 -.00078242  00000+0 -28340-2 0  2802
2 63682  42.9999 174.3836 0001681 262.3533 295.6308 15.27655319    19
STARLINK-33851          
1 63683C 25085V   25280.82340278 -.00050630  00000+0 -18339-2 0  2801
2 63683  43.0026 173.9436 0001600 270.4296 111.5033 15.27626381    19
STARLINK-33853          
1 63684C 25085W   25280.82548611 -.00018017  00000+0 -65245-3 0  2805
2 63684  43.0024 173.8814 0001186 269.0538 145.5164 15.27602222    19
STARLINK-33847          
1 63685C 25085X   25280.82895833 -.00062969  00000+0 -22805-2 0  2806
2 63685  43.0019 174.2187 0002603 283.2890   1.8746 15.27641319    16
STARLINK-33880          
1 63686C 25085Y   25280.82826389 -.00084082  00000+0 -30455-2 0  2807
2 63686  42.9996 174.3888 0001463 259.8544 310.7467 15.27661548    14
