OBJECT_NAME,OBJECT_ID,EPOCH,MEAN_MOTION,ECCENTRICITY,INCLINATION,RA_OF_ASC_NODE,ARG_OF_PERICENTER,MEAN_ANOMALY,EPHEMERIS_TYPE,CLASSIFICATION_TYPE,NORAD_CAT_ID,ELEMENT_SET_NO,REV_AT_EPOCH,BSTAR,MEAN_MOTION_DOT,MEAN_MOTION_DDOT,RMS,DATA_SOURCE
STARLINK-33772,2025-083Y,2025-10-07T19:47:42.000029,15.27597026,0.0001849,42.9994,148.4749,271.6097,262.8605,0,C,63656,280,1,-0.00082373,-0.0002274,0,0.572,SpaceX-E
STARLINK-33789,2025-083Z,2025-10-07T19:52:42.000010,15.27604864,0.0001454,42.9995,148.3517,272.8612,323.158,0,C,63657,280,1,-0.0011574,-0.0003195,0,0.581,SpaceX-E
STARLINK-33822,2025-083AA,2025-10-07T19:49:42.000038,15.27601094,0.0001454,43.0019,148.6548,270.351,193.9202,0,C,63658,280,1,-0.00086208,-0.00023801,0,0.445,SpaceX-E
STARLINK-33771,2025-083AB,2025-10-07T19:52:42.000010,15.27493699,0.0001071,43.0009,151.8861,276.523,322.0356,0,C,63659,280,1,0.0029759,0.00082153,0,0.437,SpaceX-E
STARLINK-33810,2025-083AC,2025-10-07T19:44:41.999971,15.27614195,0.0001768,43.0002,148.2648,262.1369,352.8359,0,C,63660,280,1,-0.001399,-0.00038622,0,0.544,SpaceX-E
STARLINK-33823,2025-083AD,2025-10-07T19:50:42.000000,15.27603876,0.0001511,43.0012,148.6051,261.9963,227.344,0,C,63661,280,1,-0.0010654,-0.00029413,0,0.584,SpaceX-E
STARLINK-11651 [DTC],2025-085A,2025-10-07T19:11:42.000029,15.70815461,0.0001874,43.0,119.6406,259.7021,334.1297,0,C,63664,280,1,1.809e-05,2.3271e-05,0,0.341,SpaceX-E
STARLINK-11672 [DTC],2025-085B,2025-10-07T19:11:42.000029,15.70832658,0.0001844,42.9999,119.5654,263.7803,0.1056,0,C,63665,280,1,-0.0001296,-0.00016671,0,0.284,SpaceX-E
STARLINK-11664 [DTC],2025-085C,2025-10-07T19:10:41.999981,15.70831406,0.0001757,43.0,120.4043,265.8652,18.2681,0,C,63666,280,1,-0.00013358,-0.00017181,0,0.38,SpaceX-E
STARLINK-11666 [DTC],2025-085D,2025-10-07T19:11:42.000029,15.70823815,0.00018,43.0,120.3868,268.4838,24.7414,0,C,63667,280,1,-6.557e-05,-8.4342e-05,0,0.321,SpaceX-E
STARLINK-11663 [DTC],2025-085E,2025-10-07T19:07:42.000010,15.70822194,0.0001842,42.9999,120.3284,264.2512,43.3097,0,C,63668,280,1,-5.8523e-05,-7.5275e-05,0,0.297,SpaceX-E
STARLINK-11595 [DTC],2025-085F,2025-10-07T18:44:42.000029,15.70676229,0.0001654,43.0,120.3492,274.4304,332.8915,0,C,63669,280,1,0.00066607,0.00085477,0,0.362,SpaceX-E
STARLINK-11599 [DTC],2025-085G,2025-10-07T18:44:42.000029,15.70833201,0.0001866,42.9999,120.2745,266.734,10.5068,0,C,63670,280,1,-0.00012751,-0.00016402,0,0.283,SpaceX-E
STARLINK-11603 [DTC],2025-085H,2025-10-07T18:38:42.000000,15.70818985,0.0001862,42.9999,120.2243,264.8491,18.8664,0,C,63671,280,1,-1.7741e-05,-2.2821e-05,0,0.299,SpaceX-E
STARLINK-11644 [DTC],2025-085J,2025-10-07T19:08:41.999971,15.70819104,0.0001935,43.0,120.0235,259.3033,172.4311,0,C,63672,280,1,-1.3959e-05,-1.7957e-05,0,0.352,SpaceX-E
STARLINK-11634 [DTC],2025-085K,2025-10-07T19:08:41.999971,15.70823136,0.0001792,43.0,119.9482,264.3961,197.3979,0,C,63673,280,1,-5.446e-05,-7.0053e-05,0,0.408,SpaceX-E
STARLINK-11656 [DTC],2025-085L,2025-10-07T19:08:41.999971,15.7082133,0.0001826,43.0,119.8732,262.7692,229.085,0,C,63674,280,1,-3.253e-05,-4.1846e-05,0,0.388,SpaceX-E
STARLINK-11655 [DTC],2025-085M,2025-10-07T19:01:41.999981,15.70823582,0.000176,43.0001,119.8275,265.5,228.8933,0,C,63675,280,1,-6.0196e-05,-7.743e-05,0,0.382,SpaceX-E
STARLINK-11661 [DTC],2025-085N,2025-10-07T19:06:41.999962,15.70822435,0.0001718,43.0001,119.7312,269.9863,274.1313,0,C,63676,280,1,-5.9148e-05,-7.6079e-05,0,0.392,SpaceX-E
STARLINK-33816,2025-085P,2025-10-07T19:50:42.000000,15.27634948,0.0001728,42.9999,174.3504,277.2929,306.8779,0,C,63677,280,1,-0.0022762,-0.00062835,0,0.759,SpaceX-E
STARLINK-33861,2025-085Q,2025-10-07T19:58:42.000038,15.27620212,0.0001462,42.9995,174.3858,270.2414,316.1013,0,C,63678,280,1,-0.001098,-0.00030325,0,0.575,SpaceX-E
STARLINK-33850,2025-085R,2025-10-07T19:51:41.999962,15.27645409,0.000146,43.0019,174.1648,263.7242,42.1094,0,C,63679,280,1,-0.0025422,-0.00070183,0,0.718,SpaceX-E
STARLINK-33887,2025-085S,2025-10-07T19:51:41.999962,15.27644044,0.0001451,43.0011,173.7519,272.8591,202.7556,0,C,63680,280,1,-0.0024375,-0.00067295,0,0.687,SpaceX-E
STARLINK-33886,2025-085T,2025-10-07T19:49:42.000038,15.27640394,0.0001547,43.0005,173.7071,276.5911,212.5975,0,C,63681,280,1,-0.0023348,-0.00064458,0,0.687,SpaceX-E
STARLINK-33840,2025-085U,2025-10-07T19:45:42.000019,15.27655319,0.0001681,42.9999,174.3836,262.3533,295.6308,0,C,63682,280,1,-0.002834,-0.00078242,0,0.701,SpaceX-E
STARLINK-33851,2025-085V,2025-10-07T19:45:42.000019,15.27626381,0.00016,43.0026,173.9436,270.4296,111.5033,0,C,63683,280,1,-0.0018339,-0.0005063,0,0.64,SpaceX-E
STARLINK-33853,2025-085W,2025-10-07T19:48:41.999990,15.27602222,0.0001186,43.0024,173.8814,269.0538,145.5164,0,C,63684,280,1,-0.00065245,-0.00018017,0,0.481,SpaceX-E
STARLINK-33847,2025-085X,2025-10-07T19:53:41.999971,15.27641319,0.0002603,43.0019,174.2187,283.289,1.8746,0,C,63685,280,1,-0.0022805,-0.00062969,0,0.671,SpaceX-E
STARLINK-33880,2025-085Y,2025-10-07T19:52:42.000010,15.27661548,0.0001463,42.9996,174.3888,259.8544,310.7467,0,C,63686,280,1,-0.0030455,-0.00084082,0,0.731,SpaceX-E
